satname,norad_id,inclination_deg,eccentricity,mean_motion_rev_per_day,perigee_km,apogee_km,l1,l2
STARLINK-1234,45190,53.0341,0.0002239,15.84700926,315.66791019991433,318.66606732608216,1 45190U 20012N   26189.92433128  .00097522  00000+0  41116-3 0  9992,2 45190  53.0341  84.3421 0002239 210.4526 149.6367 15.84700926354948
STARLINK-1269,45197,53.1537,0.000317,15.3760214,451.0367917109879,455.36786084384767,1 45197U 20012V   26189.30101190  .00034354  00000+0  92356-3 0  9998,2 45197  53.1537 197.0149 0003170  25.1944 334.9214 15.37602140353410
STARLINK-1154,45198,53.0407,0.0004879,15.66190313,366.5252778564136,373.1099319598834,1 45198U 20012W   26188.29152227  .00037065  00000+0  35680-3 0  9992,2 45198  53.0407 150.1788 0004879  65.1962 294.9560 15.66190313353927
STARLINK-1199,45201,53.1529,0.0005643,15.37544222,449.5188574894446,457.2289006675719,1 45201U 20012Z   26189.27246636  .00035209  00000+0  94768-3 0  9994,2 45201  53.1529 181.4227 0005643  26.6595 333.4698 15.37544222353658
STARLINK-1209,45206,53.0344,0.0001395,15.74149292,346.1148959741249,347.9912240008607,1 45206U 20012AE  26189.94130496  .00056150  00000+0  38573-3 0  9999,2 45206  53.0344 101.1213 0001395 183.4312 176.6696 15.74149292353867
STARLINK-1231,45212,53.0351,0.0002602,15.2983195,474.5306924835122,478.0977488987601,1 45212U 20012AL  26189.99292761  .00030319  00000+0  10432-2 0  9997,2 45212  53.0351 174.5836 0002602  89.6522 270.4775 15.29831950353746
STARLINK-1271,45217,53.1531,0.0005178,15.37740518,449.2554397030217,456.32955028803826,1 45217U 20012AR  26189.39629735  .00035541  00000+0  95049-3 0  9991,2 45217  53.1531 180.9224 0005178  29.9267 330.2032 15.37740518353679
STARLINK-1191,45222,53.1526,0.0003213,15.42062685,437.8318131775013,442.2131624643753,1 45222U 20012AW  26189.61847092  .00038195  00000+0  88556-3 0  9993,2 45222  53.1526 151.9653 0003213  17.2707 342.8407 15.42062685354102
STARLINK-1212,45223,53.0368,0.0001494,15.7283071,349.80593707150274,351.8165468061934,1 45223U 20012AX  26189.95628492  .00051742  00000+0  37662-3 0  9997,2 45223  53.0368 116.6318 0001494 151.8334 208.2765 15.72830710354604
STARLINK-1215,45225,53.1542,0.0005392,15.37861283,448.75183364327495,456.11792235650864,1 45225U 20012AZ  26189.52285417  .00013023  00000+0  35454-3 0  9995,2 45225  53.1542 154.5618 0005392  36.8947 323.2427 15.37861283354016
STARLINK-1221,45227,53.0637,0.0002914,15.46417182,425.2340635424107,429.20022393738236,1 45227U 20012BB  26189.89372006  .00012784  00000+0  26238-3 0  9991,2 45227  53.0637  53.4711 0002914  52.4354 307.6917 15.46417182355438
STARLINK-1222,45228,53.05,0.0004357,15.57302654,392.5160879606701,398.4186067889723,1 45228U 20012BC  26188.23624992  .00037828  00000+0  51299-3 0  9994,2 45228  53.0500 126.4098 0004357  55.0908 305.0512 15.57302654354200
STARLINK-1226,45229,53.153,0.0005634,15.47489266,420.2412975475263,427.9060285226351,1 45229U 20012BD  26189.30465627  .00053080  00000+0  10181-2 0  9994,2 45229  53.1530 149.6300 0005634  34.9021 325.2356 15.47489266354001
STARLINK-1227,45230,53.1502,0.0005044,15.4762054,420.25816008253787,427.119842152465,1 45230U 20012BE  26189.50634283  .00064046  00000+0  12195-2 0  9995,2 45230  53.1502 148.7476 0005044  29.6919 330.4374 15.47620540354154
STARLINK-1246,45235,53.153,0.0004874,15.37788918,449.31983904158824,455.97848939446703,1 45235U 20012BK  26189.43552988  .00037913  00000+0  10114-2 0  9995,2 45235  53.1530 195.9884 0004874   0.6900 359.4110 15.37788918353494
STARLINK-1270,45237,53.0365,0.0001306,15.7167864,353.2199073698457,354.9783674489372,1 45237U 20012BM  26188.93423694  .00040086  00000+0  30780-3 0  9999,2 45237  53.0365 123.6013 0001306 138.7022 221.4094 15.71678640354418
STARLINK-1279,45360,53.0316,0.0004112,15.85904379,311.02771956864945,316.531151645293,1 45360U 20019A   26189.93911358  .00109936  00000+0  43627-3 0  9997,2 45360  53.0316 218.7397 0004112  20.6628 339.4560 15.85904379349723
STARLINK-1301,45361,53.0301,0.0006359,15.87308705,305.57898613690486,314.08474494009715,1 45361U 20019B   26189.10560654  .00099109  00000+0  36767-3 0  9993,2 45361  53.0301 224.9402 0006359  21.1998 338.9288 15.87308705349572
STARLINK-1262,45366,53.1539,0.0001623,15.36845793,454.33438025419036,456.55256047487,1 45366U 20019G   26189.68697793  .00042524  00000+0  11677-2 0  9997,2 45366  53.1539 321.4795 0001623 252.6500 107.4326 15.36845793348307
STARLINK-1273,45367,53.0416,0.0001618,15.61699792,381.65290896786337,383.840730972006,1 45367U 20019H   26189.58618457  .00077500  00000+0  87938-3 0  9993,2 45367  53.0416 292.0214 0001618 336.6022  23.4917 15.61699792348684
STARLINK-1277,45369,53.0402,0.0002422,15.7027272,356.4854213754652,359.748462785009,1 45369U 20019K   26188.29257259  .00046903  00000+0  38076-3 0  9993,2 45369  53.0402 290.5480 0002422   6.8899 353.2151 15.70272720348593
STARLINK-1281,45370,53.1568,0.0001245,15.3765804,452.18627986147203,453.88724212796023,1 45370U 20019L   26189.68189801  .00043216  00000+0  11558-2 0  9995,2 45370  53.1568 320.9587 0001245 208.9323 151.1612 15.37658040348317
STARLINK-1300,45374,53.1573,0.0001735,15.38223584,450.17737189821855,452.5472081518583,1 45374U 20019Q   26189.68244965  .00041427  00000+0  10885-2 0  9996,2 45374  53.1573 320.7373 0001735 226.2133 133.8727 15.38223584348310
STARLINK-1302,45375,53.0433,9.93e-05,15.70614589,356.47059249774065,357.8082183918632,1 45375U 20019R   26189.28128336  .00042997  00000+0  34471-3 0  9997,2 45375  53.0433 281.4576 0000993 104.8472 255.2655 15.70614589348803
STARLINK-1304,45376,53.0403,5.41e-05,15.6625453,369.2681035689475,369.99821230003636,1 45376U 20019S   26188.27841335  .00036207  00000+0  34796-3 0  9994,2 45376  53.0403 288.6134 0000541 266.4226  93.6727 15.66254530348615
STARLINK-1305,45377,53.0356,0.0006586,15.75758933,338.046222870581,346.8986095936407,1 45377U 20019T   26189.46422737  .00056524  00000+0  36170-3 0  9990,2 45377  53.0356 259.3348 0006586 358.8997   1.2006 15.75758933349130
STARLINK-1319,45379,53.0342,0.0003679,15.83557441,317.9253271949892,322.85410315201443,1 45379U 20019V   26189.80649674  .00087991  00000+0  39234-3 0  9997,2 45379  53.0342 247.7771 0003679  16.9100 343.2044 15.83557441349328
STARLINK-1266,45383,53.0432,0.0003692,15.68746205,359.9975366560002,364.97481280822194,1 45383U 20019Z   26188.24778552  .00040458  00000+0  35067-3 0  9994,2 45383  53.0432 273.1904 0003692 353.1750   6.9215 15.68746205348824
STARLINK-1267,45384,53.0404,0.0002248,15.73229306,348.1622101896828,351.1870342950442,1 45384U 20019AA  26188.24081895  .00049302  00000+0  35311-3 0  9991,2 45384  53.0404 263.9994 0002248  26.1967 333.9164 15.73229306348957
STARLINK-1272,45386,53.0369,0.0002708,15.78324208,333.37039934580207,337.00633636503335,1 45386U 20019AC  26189.50935557  .00067347  00000+0  38391-3 0  9996,2 45386  53.0369 235.4557 0002708  40.9786 319.1437 15.78324208349460
STARLINK-1274,45387,53.0166,0.0005848,15.68101683,360.39007478011627,368.27606777548226,1 45387U 20019AD  26189.52338914  .00096426  00000+0  84488-3 0  9991,2 45387  53.0166 236.5857 0005848 312.6289  47.4232 15.68101683349447
STARLINK-1280,45388,53.0307,0.0006629,15.90790902,295.64146722557234,304.4954320106772,1 45388U 20019AE  26190.00002315  .00235757  31574-4  74726-3 0  9991,2 45388  53.0307 237.7461 0006629  17.0818 273.3572 15.90790902  5978
STARLINK-1283,45389,53.0339,0.0004031,15.75798385,339.6512109876003,345.06927586525126,1 45389U 20019AF  26189.59672693  .00062370  00000+0  39802-3 0  9996,2 45389  53.0339 234.1812 0004031 353.3528   6.7437 15.75798385349496
STARLINK-1284,45390,53.0394,0.0003782,15.73818651,345.45112673179483,350.53877293865116,1 45390U 20019AG  26189.45817164  .00050944  00000+0  35551-3 0  9998,2 45390  53.0394 259.1595 0003782  58.3516 301.7871 15.73818651349122
STARLINK-1297,45395,53.0396,0.0003205,15.76918915,337.02332502263835,341.329122799164,1 45395U 20019AM  26189.77063298  .00069630  00000+0  42225-3 0  9997,2 45395  53.0396 256.4140 0003205  20.1372 339.9773 15.76918915348379
STARLINK-1307,45397,53.0511,0.0002043,15.58856447,389.5826033494168,392.3484586435834,1 45397U 20019AP  26189.54654435  .00028937  00000+0  37224-3 0  9991,2 45397  53.0511 266.8567 0002043 341.1716  18.9220 15.58856447348850
STARLINK-1255,45399,53.0314,0.0001018,15.687207,361.8730331415554,363.2454388952092,1 45399U 20019AR  26189.39979140  .00035539  00000+0  30922-3 0  9993,2 45399  53.0314 233.2499 0001018 317.0610  43.0327 15.68720700349290
STARLINK-1260,45404,53.1543,0.0001391,15.40898768,442.50656745773085,444.40433447758915,1 45404U 20019AW  26189.53222022  .00047226  00000+0  11345-2 0  9999,2 45404  53.1543 283.6817 0001391 253.1804 106.9049 15.40898768348530
STARLINK-1263,45405,53.1548,0.0002536,15.37947056,450.4487413429006,453.91307858683376,1 45405U 20019AX  26189.56162460  .00039307  00000+0  10429-2 0  9995,2 45405  53.1548 285.4534 0002536 280.6472  79.4247 15.37947056348513
STARLINK-1265,45406,53.1548,0.0001176,15.41242512,441.63903141616447,443.243231392672,1 45406U 20019AY  26188.28509171  .00043204  00000+0  10275-2 0  9998,2 45406  53.1548 289.4820 0001176 324.4802  35.6125 15.41242512348349
STARLINK-1278,45408,53.0368,0.0002505,15.78051725,334.27925958718697,337.6430227559131,1 45408U 20019BA  26189.45977725  .00065807  00000+0  37990-3 0  9991,2 45408  53.0368 256.6584 0002505  29.3525 330.7635 15.78051725348881
STARLINK-1296,45412,53.1534,6.7e-05,15.41497739,441.23132332483874,442.1451799085553,1 45412U 20019BE  26189.61777272  .00049874  00000+0  11737-2 0  9995,2 45412  53.1534 282.8332 0000670 262.1963  97.8966 15.41497739348559
STARLINK-1309,45414,53.0567,0.000296,15.76322089,338.88282675770097,342.8604798804654,1 45414U 20019BG  26189.44192548  .00053616  00000+0  33538-3 0  9998,2 45414  53.0567 251.0561 0002960  30.0142 330.1047 15.76322089348942
